      2.10          N: GNSS NAV DATA                        RINEX VERSION / TYPE
fic2rin                                 03/01/2020 00:20:21 PGM / RUN BY / DATE
                                                            END OF HEADER
26 20  2 29 16  0  0.0 1.582340337336e-04 7.617018127348e-12 0.000000000000e+00
    9.300000000000e+01 1.821875000000e+01 5.118427488764e-09 4.308740972128e-01
    9.648501873016e-07 4.678055644035e-03 3.796070814133e-06 5.153572784424e+03
    5.760000000000e+05 5.587935447693e-09 2.567035178199e+00 3.352761268616e-08
    9.478120117404e-01 2.941250000000e+02 1.977622588947e-01-8.591072138353e-09
   -1.807218135032e-10 1.000000000000e+00 2.094000000000e+03 0.000000000000e+00
    2.400000000000e+00 0.000000000000e+00 7.450580596924e-09 9.300000000000e+01
    5.688000000000e+05 4.000000000000e+00
20 20  2 29 16  0  0.0 5.278750322759e-04 0.000000000000e+00 0.000000000000e+00
    7.200000000000e+01-1.153125000000e+01 5.429869032983e-09 2.237174921898e+00
   -6.277114152908e-07 5.033340188675e-03 5.373731255531e-06 5.153625486374e+03
    5.760000000000e+05 4.656612873077e-08-6.731591223852e-01 6.146728992462e-08
    9.331748975430e-01 2.591875000000e+02 2.608212473193e+00-8.524283642058e-09
    1.289339420448e-10 1.000000000000e+00 2.094000000000e+03 0.000000000000e+00
    2.400000000000e+00 0.000000000000e+00-8.847564458847e-09 7.200000000000e+01
    5.688000000000e+05 4.000000000000e+00
18 20  2 29 16  0  0.0 4.956498742104e-06 1.705302565824e-12 0.000000000000e+00
    3.000000000000e+01-1.093750000000e+00 4.337323524077e-09 2.451297504232e+00
   -6.146728992462e-08 1.570133829955e-02 8.296221494675e-06 5.153635625839e+03
    5.760000000000e+05 2.235174179077e-07-1.644713920045e+00-6.705522537231e-08
    9.573776146662e-01 2.148437500000e+02 1.455836148436e+00-7.739608100029e-09
    3.025126008641e-10 1.000000000000e+00 2.094000000000e+03 0.000000000000e+00
    2.400000000000e+00 6.300000000000e+01-5.587935447693e-09 3.000000000000e+01
    5.688000000000e+05 4.000000000000e+00
18 20  2 29 15 59 44.0 4.956498742104e-06 1.705302565824e-12 0.000000000000e+00
    3.100000000000e+01-1.093750000000e+00 4.336966366343e-09 2.448963718334e+00
   -6.146728992462e-08 1.570134016220e-02 8.296221494675e-06 5.153635623932e+03
    5.759840000000e+05 2.235174179077e-07-1.644713804475e+00-6.705522537231e-08
    9.573776029628e-01 2.148437500000e+02 1.455836164528e+00-7.739250942295e-09
    3.025126008641e-10 1.000000000000e+00 2.094000000000e+03 0.000000000000e+00
    2.400000000000e+00 6.300000000000e+01-5.587935447693e-09 3.100000000000e+01
    5.717100000000e+05 4.000000000000e+00
 5 20  2 29 15 59 44.0-8.363276720047e-06-5.684341886081e-13 0.000000000000e+00
    2.000000000000e+00-2.368750000000e+01 4.996993859137e-09-6.183846577688e-01
   -1.026317477226e-06 5.768285249360e-03 5.504116415977e-06 5.153604883194e+03
    5.759840000000e+05 3.352761268616e-08-5.728463103539e-01 7.264316082001e-08
    9.519596068587e-01 2.673125000000e+02 7.904650152750e-01-8.435351366243e-09
    1.007184810433e-10 1.000000000000e+00 2.094000000000e+03 0.000000000000e+00
    2.400000000000e+00 0.000000000000e+00-1.117587089539e-08 2.000000000000e+00
    5.723400000000e+05 4.000000000000e+00
26 20  2 29 15 59 44.0 1.582344993949e-04 7.617018127348e-12 0.000000000000e+00
    0.000000000000e+00 1.821875000000e+01 5.118427488764e-09 4.285398680513e-01
    9.648501873016e-07 4.678046912886e-03 3.796070814133e-06 5.153572782516e+03
    5.759840000000e+05 5.587935447693e-09 2.567035312787e+00 3.352761268616e-08
    9.478120249067e-01 2.941250000000e+02 1.977626246243e-01-8.591072138353e-09
   -1.810789712374e-10 1.000000000000e+00 2.094000000000e+03 0.000000000000e+00
    2.400000000000e+00 0.000000000000e+00 7.450580596924e-09 0.000000000000e+00
    5.727900000000e+05 4.000000000000e+00
28 20  2 29 15 59 44.0 7.360610179603e-04-2.387423592154e-12 0.000000000000e+00
    8.800000000000e+01-2.437500000000e+00 4.455185576362e-09-6.481265562040e-01
   -5.774199962616e-08 1.860604807734e-02 4.814937710762e-06 5.153666032791e+03
    5.759840000000e+05-1.974403858185e-07 2.691169479680e+00 1.862645149231e-09
    9.786884397190e-01 2.993125000000e+02-1.414316273138e+00-8.517497645108e-09
   -1.314340461842e-10 1.000000000000e+00 2.094000000000e+03 0.000000000000e+00
    2.400000000000e+00 0.000000000000e+00-1.117587089539e-08 8.800000000000e+01
    5.727900000000e+05 4.000000000000e+00
 5 20  2 29 17 59 44.0-8.367467671633e-06-5.684341886081e-13 0.000000000000e+00
    8.000000000000e+00-1.862500000000e+01 4.925919470032e-09 4.318518780098e-01
   -8.866190910339e-07 5.769019713625e-03 5.533918738365e-06 5.153606294632e+03
    5.831840000000e+05-4.470348358154e-08-5.729067961648e-01 8.940696716309e-08
    9.519603339290e-01 2.681250000000e+02 7.904540945916e-01-8.406778747507e-09
    6.285976121851e-11 1.000000000000e+00 2.094000000000e+03 0.000000000000e+00
    2.400000000000e+00 0.000000000000e+00-1.117587089539e-08 8.000000000000e+00
    5.760000000000e+05 4.000000000000e+00
26 20  2 29 17 59 44.0 1.582894474268e-04 7.617018127348e-12 0.000000000000e+00
    2.200000000000e+01 2.271875000000e+01 5.194144928414e-09 1.478721734581e+00
    1.441687345505e-06 4.678489756770e-03 4.056841135025e-06 5.153573741913e+03
    5.831840000000e+05 2.421438694000e-08 2.566973295301e+00 5.960464477539e-08
    9.478107594826e-01 2.938437500000e+02 1.978274787085e-01-8.599286766239e-09
   -1.557207721095e-10 1.000000000000e+00 2.094000000000e+03 0.000000000000e+00
    2.400000000000e+00 0.000000000000e+00 7.450580596924e-09 2.200000000000e+01
    5.760000000000e+05 4.000000000000e+00
28 20  2 29 17 59 44.0 7.360433228314e-04-2.387423592154e-12 0.000000000000e+00
    9.000000000000e+01 1.437500000000e+00 4.499473135402e-09 4.020710206033e-01
    4.656612873077e-08 1.860582898371e-02 4.900619387627e-06 5.153665655136e+03
    5.831840000000e+05-1.769512891769e-07 2.691108467218e+00-9.313225746155e-08
    9.786872489037e-01 3.002812500000e+02-1.414329032710e+00-8.523926484324e-09
   -2.014369620866e-10 1.000000000000e+00 2.094000000000e+03 0.000000000000e+00
    2.400000000000e+00 0.000000000000e+00-1.117587089539e-08 9.000000000000e+01
    5.760000000000e+05 4.000000000000e+00
18 20  2 29 17 59 44.0 4.969071596861e-06 1.705302565824e-12 0.000000000000e+00
    5.000000000000e+01-2.656250000000e+00 4.319822795102e-09-2.784004852200e+00
   -6.519258022308e-08 1.570054690819e-02 8.702278137207e-06 5.153636997223e+03
    5.831840000000e+05 1.862645149231e-07-1.644769445101e+00 1.676380634308e-08
    9.573797695445e-01 2.074375000000e+02 1.455822290213e+00-7.719964424648e-09
    3.196561721055e-10 1.000000000000e+00 2.094000000000e+03 0.000000000000e+00
    2.400000000000e+00 6.300000000000e+01-5.587935447693e-09 5.000000000000e+01
    5.760000000000e+05 4.000000000000e+00
 2 20  2 29 18  0  0.0-4.136492498219e-04-6.821210263297e-12 0.000000000000e+00
    4.400000000000e+01 1.703125000000e+01 4.387325606865e-09-2.202424512758e+00
    9.220093488693e-07 1.979948964436e-02 8.184462785721e-06 5.153645362854e+03
    5.832000000000e+05 3.390014171600e-07-1.658146018380e+00 3.166496753693e-08
    9.578565038253e-01 2.180000000000e+02-1.652972372020e+00-7.722464528788e-09
    2.985838657879e-10 1.000000000000e+00 2.094000000000e+03 0.000000000000e+00
    2.400000000000e+00 0.000000000000e+00-1.769512891769e-08 4.400000000000e+01
    5.760000000000e+05 4.000000000000e+00
 1 20  2 29 18  0  0.0-3.108070231974e-04-1.227817847393e-11 0.000000000000e+00
    1.030000000000e+02-3.250000000000e+00 3.934449599904e-09-2.467164340052e+00
   -1.527369022369e-07 9.453102946281e-03 8.560717105865e-06 5.153632886887e+03
    5.832000000000e+05 4.097819328308e-08-1.583644518934e+00-6.891787052155e-08
    9.788025853651e-01 2.244687500000e+02 7.545902365579e-01-7.640318249923e-09
    3.753727786401e-10 1.000000000000e+00 2.094000000000e+03 0.000000000000e+00
    2.400000000000e+00 0.000000000000e+00 5.587935447693e-09 1.030000000000e+02
    5.760000000000e+05 4.000000000000e+00
 3 20  2 29 18  0  0.0-1.062885858119e-04-9.322320693173e-12 0.000000000000e+00
    1.010000000000e+02-1.637500000000e+01 4.572333313178e-09 2.709633976708e+00
   -7.841736078262e-07 2.642011852004e-03 5.990266799927e-06 5.153600317001e+03
    5.832000000000e+05-1.862645149231e-09-5.422323108608e-01-5.029141902924e-08
    9.650876376710e-01 2.660625000000e+02 7.160923403946e-01-8.104980462112e-09
    1.550064566411e-10 1.000000000000e+00 2.094000000000e+03 0.000000000000e+00
    2.400000000000e+00 0.000000000000e+00 1.862645149231e-09 1.010000000000e+02
    5.760000000000e+05 4.000000000000e+00
10 20  2 29 18  0  0.0-2.618399448693e-04-1.284661266254e-11 0.000000000000e+00
    2.200000000000e+01-2.021875000000e+01 4.678766317969e-09 1.727039260449e+00
   -1.013278961182e-06 5.439993459731e-03 5.982816219330e-06 5.153660551071e+03
    5.832000000000e+05-8.381903171539e-08-5.453177513818e-01 5.587935447693e-08
    9.650521706851e-01 2.655937500000e+02-2.659711446675e+00-8.200341577142e-09
    5.178787145843e-11 1.000000000000e+00 2.094000000000e+03 0.000000000000e+00
    2.400000000000e+00 0.000000000000e+00 1.862645149231e-09 2.200000000000e+01
    5.760000000000e+05 4.000000000000e+00
 7 20  2 29 18  0  0.0-2.254121936858e-04-8.412825991400e-12 0.000000000000e+00
    5.600000000000e+01 6.100000000000e+01 4.716625037793e-09 3.075878702626e+00
    3.064051270485e-06 1.338202750776e-02 8.802860975266e-06 5.153692161560e+03
    5.832000000000e+05-3.725290298462e-08 1.563312783990e+00-1.974403858185e-07
    9.533743817669e-01 2.070625000000e+02-2.415327496862e+00-7.906757919633e-09
    1.585780339831e-10 1.000000000000e+00 2.094000000000e+03 0.000000000000e+00
    2.400000000000e+00 0.000000000000e+00-1.117587089539e-08 5.600000000000e+01
    5.760000000000e+05 4.000000000000e+00
